[{"OBJECT_NAME":"KHALIFASAT","OBJECT_ID":"2018-084F","EPOCH":"2026-03-09T22:37:07.705056","MEAN_MOTION":15.0097364,"ECCENTRICITY":0.00062701,"INCLINATION":98.0864,"RA_OF_ASC_NODE":247.4233,"ARG_OF_PERICENTER":83.8573,"MEAN_ANOMALY":276.3364,"EPHEMERIS_TYPE":0,"CLASSIFICATION_TYPE":"U","NORAD_CAT_ID":43676,"ELEMENT_SET_NO":999,"REV_AT_EPOCH":40088,"BSTAR":0.00043724412,"MEAN_MOTION_DOT":5.516e-5,"MEAN_MOTION_DDOT":0},{"OBJECT_NAME":"STARLINK-36185","OBJECT_ID":"2025-304N","EPOCH":"2026-03-09T16:09:40.201344","MEAN_MOTION":14.99139633,"ECCENTRICITY":0.00029868,"INCLINATION":70.0027,"RA_OF_ASC_NODE":174.4434,"ARG_OF_PERICENTER":267.6224,"MEAN_ANOMALY":92.4593,"EPHEMERIS_TYPE":0,"CLASSIFICATION_TYPE":"U","NORAD_CAT_ID":67204,"ELEMENT_SET_NO":999,"REV_AT_EPOCH":1388,"BSTAR":0.00016881136,"MEAN_MOTION_DOT":1.964e-5,"MEAN_MOTION_DDOT":0}]
